ELFIN-A                 
1 43617U 18070E   21157.40506403  .00006369  00000-0  13435-3 0  9998
2 43617  93.0304 302.3570 0015139  49.5324 310.7250 15.45118110153080
CUBEBEL-1 (BSUSAT-1)    
1 43666U 18083E   21157.51410602  .00001229  00000-0  61350-4 0  9993
2 43666  97.4563 186.0212 0013714 201.2195 264.2856 15.19319557144353
CICERO 10               
1 43690U 18088A   21157.39422751  .00001325  00000-0  57394-4 0  9999
2 43690  85.0391 204.9598 0016939  91.2189 269.0993 15.21218226142549
IRVINE01                
1 43693U 18088D   21157.40327365  .00003618  00000-0  14047-3 0  9993
2 43693  85.0356 202.3020 0018903  70.0893 290.2385 15.25530917142757
PROXIMA I               
1 43694U 18088E   21157.37677469  .00001256  00000-0  51462-4 0  9992
2 43694  85.0332 202.6120 0020837  64.6467 295.6930 15.22942082142696
PROXIMA II              
1 43696U 18088G   21157.37500452  .00001264  00000-0  51798-4 0  9992
2 43696  85.0333 202.6218 0020886  64.5909 295.7492 15.22940299142682
FACSAT-1                
1 43721U 18096C   21157.47384807  .00001933  00000-0  71508-4 0  9999
2 43721  97.3845 234.6968 0015354 314.2135 178.6777 15.28828519140445
CENTAURI-2              
1 43722U 18096D   21157.49342072  .00002642  00000-0  93528-4 0  9994
2 43722  97.3879 235.4900 0015024 312.6166  47.3807 15.29941478140489
INNOSAT-2               
1 43738U 18096V   21157.51429513  .00003648  00000-0  11476-3 0  9998
2 43738  97.3921 239.2210 0019944 313.2955 172.3096 15.33427550140729
SIRION PATHFINDER-2     
1 43759U 18099B   21157.48690011  .00000512  00000-0  51265-4 0  9991
2 43759  97.6647 228.3007 0015912  81.5143 278.7881 14.95517344136847
CORVUS BC4              
1 43767U 18099K   21157.42726548  .00000082  00000-0  12694-4 0  9994
2 43767  97.6619 227.2487 0013344  86.0105 274.2641 14.94942985136780
MOVE-II                 
1 43780U 18099Y   21157.44153266  .00000185  00000-0  21588-4 0  9998
2 43780  97.6670 228.3929 0014950  91.6671 268.6263 14.95919581136828
SPACEBEE-7              
1 43816U 18099BL  21157.45459135  .00000324  00000-0  33834-4 0  9995
2 43816  97.6681 228.9961 0014692  77.3888 282.8975 14.96121497136411
SPACEBEE-5              
1 43817U 18099BM  21157.46929589  .00001491  00000-0  13324-3 0  9999
2 43817  97.6768 230.2390 0014340  77.8165 282.4663 14.97327902136468
SPACEBEE-6              
1 43818U 18099BN  21157.42164828  .00001189  00000-0  10954-3 0  9993
2 43818  97.6715 229.3396 0014978  77.4398 282.8498 14.96493465136576
SHIELDS 1               
1 43850U 18104B   21157.40941659  .00000707  00000-0  29230-4 0  9992
2 43850  85.0277 301.2379 0013782 200.8168 159.2514 15.21875048137292
STF-1                   
1 43852U 18104D   21157.38163239  .00001657  00000-0  69877-4 0  9997
2 43852  85.0315 301.9243 0012753 216.2066 143.8314 15.22417238137278
ZACUBE-2                
1 43907U 18111AH  21157.62808311  .00000641  00000-0  28201-4 0  9998
2 43907  97.2342  52.1354 0020537 336.5442  84.2946 15.25186065135984
LUME 1                  
1 43908U 18111AJ  21157.44555698  .00001508  00000-0  60744-4 0  9997
2 43908  97.2347  52.5080 0019749 335.3593  24.6700 15.26209113135995
AOBA VELOX-IV           
1 43940U 19003J   21157.36424039  .00003497  00000-0  13280-3 0  9990
2 43940  97.1785 201.8697 0023860  52.1839 308.1555 15.27199573132618
UNITE                   
1 44031U 98067PX  21157.18041434  .00037985  00000-0  22339-3 0  9997
2 44031  51.6382 323.4126 0002252 280.2492  79.8254 15.77838227133897
RAAVANA-1               
1 44329U 98067QE  21156.81930550  .00047775  00000-0  29818-3 0  9999
2 44329  51.6358 345.0940 0004554 237.1547 122.9015 15.76378634112323
UGUISU                  
1 44330U 98067QF  21156.81317918  .00044595  00000-0  28518-3 0  9991
2 44330  51.6321 345.7112 0004648 234.6539 125.4026 15.75853811112290
NEPALISAT-1             
1 44331U 98067QG  21156.94127136  .00045691  00000-0  28640-3 0  9991
2 44331  51.6339 344.3153 0004508 236.6792 123.3777 15.76300634112334
SPOOQY-1                
1 44332U 98067QH  21157.14363492  .00041754  00000-0  27264-3 0  9999
2 44332  51.6335 344.2108 0003942 238.6955 121.3659 15.75409018112314
SPACEBEE-9              
1 44370U 19037F   21157.46202728  .00026552  00000-0  36767-3 0  9997
2 44370  44.9997 281.3574 0004116 192.6930 167.3861 15.56659835109470
MOVE-IIB                
1 44398U 19038N   21157.60082429  .00001517  00000-0  87642-4 0  9991
2 44398  97.5834 121.6536 0024457 351.4793   8.6017 15.13628243106121
SONATE                  
1 44400U 19038Q   21157.59761068  .00000652  00000-0  41012-4 0  9996
2 44400  97.5891 121.5336 0024847 351.2862   8.7930 15.12536112106096
LUCKY-7                 
1 44406U 19038W   21157.47197753  .00000866  00000-0  52646-4 0  9995
2 44406  97.5889 121.6532 0023973 350.8686   9.2105 15.12935804106086
BEESAT 9                
1 44412U 19038AC  21157.42751671  .00001243  00000-0  73320-4 0  9994
2 44412  97.5872 121.6310 0022129 356.8277   3.2810 15.13258576105781
JAISAT-1                
1 44419U 19038F   21157.46690472  .00001225  00000-0  71404-4 0  9997
2 44419  97.5877 122.2089 0020941 355.1994   4.9033 15.13743408106139
KRAKSAT                 
1 44427U 98067QM  21157.47960618  .00019499  00000-0  18501-3 0  9998
2 44427  51.6413 356.2547 0003521 186.7750 256.4440 15.66912440109755
VCC A                   
1 44428U 98067QN  21157.24639902  .00038919  00000-0  26933-3 0  9999
2 44428  51.6365 347.2901 0003170 209.6990 150.3829 15.74101853109858
ENTRYSAT                
1 44429U 98067QP  21156.94466599  .00086288  00000-0  37503-3 0  9993
2 44429  51.6285 339.0501 0004274 238.0978 121.9610 15.84065394109934
VCC C                   
1 44430U 98067QQ  21135.86339224  .14395497  12494-4  36286-3 0  9998
2 44430  51.6031  72.7547 0006607 237.3053 122.7339 16.45570539105634
VCC B                   
1 44431U 98067QR  21156.94960177  .00040660  00000-0  27417-3 0  9994
2 44431  51.6319 348.2088 0003458 210.1211 149.9590 15.74681895109757
DUCHIFAT-3              
1 44854U 19089C   21157.40656715  .00000255  00000-0  26768-4 0  9997
2 44854  36.9647 165.9629 0007949  41.1808 318.9555 14.99490533 81441
EYESAT-NANO             
1 44877U 19092E   21157.47733536  .00001441  00000-0  74137-4 0  9991
2 44877  97.4605 341.2709 0011981 222.7234 137.3069 15.17986246 81277
ORBITAL FACTORY 2 (OF-2)
1 45113U 19071C   21157.21287956  .00002942  00000-0  94267-4 0  9997
2 45113  51.6425  92.0095 0011186 252.6962 107.2798 15.35702970 75446
M2 PATHFINDER           
1 45727U 20037E   21157.48171583 -.00000480  00000-0 -42530-4 0  9992
2 45727  97.7153 335.5418 0012298 199.4385 160.6372 14.91380291 50782
NETSAT-4                
1 46504U 20068U   21157.57569053  .00001155  00000-0  92483-4 0  9993
2 46504  97.6871  94.5121 0011332 159.8764 200.2934 15.02097101 37603
NETSAT-3                
1 46505U 20068V   21157.38223779  .00000458  00000-0  39529-4 0  9992
2 46505  97.6844  94.2936 0009228 166.0822 194.0657 15.02042055 37588
NETSAT-1                
1 46506U 20068W   21157.32174364 -.00000047  00000-0  10348-5 0  9996
2 46506  97.6851  94.2159 0006645 166.4325 193.7045 15.02007766 37572
NETSAT-2                
1 46507U 20068X   21157.59154486 -.00000019  00000-0  31180-5 0  9995
2 46507  97.6860  94.4846 0006433 162.2900 197.8494 15.01989020 37569
SPOC                    
1 46921U 98067RR  21157.20703599  .00007709  00000-0  12332-3 0  9990
2 46921  51.6432  32.1085 0002379  59.7105 300.4120 15.54185771 33114
BOBCAT-1                
1 46922U 98067RS  21157.36185139  .00010152  00000-0  15110-3 0  9995
2 46922  51.6441  30.1605 0002168  73.7042 286.4188 15.55778787 33116
NEUTRON-1               
1 46923U 98067RT  21157.02875432  .00006770  00000-0  10969-3 0  9999
2 46923  51.6433  33.1654 0002492  71.4856 288.6405 15.54057170 33114
1998-067RU              
1 46924U 98067RU  21157.35852405  .00021213  00000-0  27039-3 0  9996
2 46924  51.6416  27.8609 0002874 113.8878 246.2416 15.59257479 33183
DESCENT                 
1 46927U 98067RX  21157.35515109  .00007217  00000-0  11653-3 0  9999
2 46927  51.6434  31.5927 0002838  87.3796 272.7520 15.54038246 33077
SAI-1 NANOCONNECT-2     
1 47701U 21015C   21157.44153875 -.00000071  00000-0  00000-0 0  9990
2 47701  97.4547 232.0784 0012375 339.6428  20.4353 15.22628676 14946
WARP-01                 
1 47924U 98067SA  21157.35536485  .00009469  00000-0  16473-3 0  9993
2 47924  51.6438  35.3265 0005627  73.9016 286.2593 15.51507548 13072
RSP-01                  
1 47925U 98067SB  21156.96730046  .00007144  00000-0  12685-3 0  9998
2 47925  51.6440  37.2401 0001851  23.7839 336.3236 15.51364098 12992
TAUSAT-1                
1 47926U 98067SC  21157.20268934  .00009017  00000-0  15481-3 0  9997
2 47926  51.6436  35.8125 0002819  15.5228 344.5848 15.51952854 13029
TSURU                   
1 47927U 98067SD  21157.35715567  .00006709  00000-0  12017-3 0  9990
2 47927  51.6441  35.3442 0001916  20.1990 339.9075 15.51231035 13052
STARS-EC                
1 47928U 98067SE  21157.35832211  .00010295  00000-0  17921-3 0  9991
2 47928  51.6433  35.3468 0006324  76.9436 283.2259 15.51376299 13039
MAYA-2                  
1 47929U 98067SF  21157.35541844  .00006769  00000-0  12105-3 0  9991
2 47929  51.6441  35.3325 0001921  15.6143 344.4906 15.51261416 13015
HIROGARI (OPUSAT-II)    
1 47930U 98067SG  21157.21702896  .00010391  00000-0  17851-3 0  9993
2 47930  51.6440  35.9091 0001600  15.9061 344.1979 15.51748142 13033
GUARANISAT-1            
1 47931U 98067SH  21156.96817794  .00006429  00000-0  11532-3 0  9996
2 47931  51.6442  37.2469 0001931  13.1281 346.9758 15.51269194 12995
SMOG-1                  
1 47964U 21022AJ  21157.27794570  .00001378  00000-0  95747-4 0  9999
2 47964  97.5594  59.8002 0019626 348.3287  11.7483 15.07043078 10194
